ONEWEB-0055             
1 45443U 20020V   24016.88373239  .00000227  00000+0  60433-3 0  9999
2 45443  87.8961 196.4259 0001579  92.2694 267.8614 13.11416348186978
ONEWEB-0093             
1 45444U 20020W   24016.93323950  .00000390  00000+0  10640-2 0  9996
2 45444  87.8965 196.3947 0001703  97.7341 262.3980 13.11419392187041
ONEWEB-0029             
1 45445U 20020X   24016.87642619  .00000477  00000+0  13094-2 0  9998
2 45445  87.8962 196.4200 0001368 102.6072 257.5209 13.11415387187013
ONEWEB-0068             
1 45446U 20020Y   24016.92757002  .00000176  00000+0  46030-3 0  9991
2 45446  87.8964 196.3945 0001582  99.9515 260.1792 13.11418466186960
ONEWEB-0046             
1 45447U 20020Z   24016.92513290  .00000092  00000+0  22465-3 0  9994
2 45447  87.8965 196.4076 0001071  98.8412 261.2837 13.11422653186971
ONEWEB-0063             
1 45448U 20020AA  24016.87804663  .00000426  00000+0  11654-2 0  9994
2 45448  87.8963 196.4192 0001068  88.5509 271.5741 13.11415771187059
ONEWEB-0019             
1 45449U 20020AB  24016.92838003  .00000189  00000+0  49865-3 0  9998
2 45449  87.8968 196.4059 0001475  85.8357 274.2939 13.11418250186907
ONEWEB-0094             
1 45450U 20020AC  24016.92733246  .00000038  00000+0  64880-4 0  9991
2 45450  87.9213 181.2809 0001495  97.3847 262.7454 13.17648917190126
ONEWEB-0087             
1 45451U 20020AD  24016.88453645  .00000164  00000+0  42790-3 0  9994
2 45451  87.8956 196.3976 0001395 105.1096 255.0186 13.11414522186944
ONEWEB-0082             
1 45452U 20020AE  24016.88616055  .00000059  00000+0  12968-3 0  9998
2 45452  87.8963 196.3940 0001508  92.4750 267.6551 13.11414630187031
ONEWEB-0050             
1 45453U 20020AF  24016.63367824  .00006608  00000+0  51698-3 0  9998
2 45453  87.9981  66.8895 0020686 253.2698 106.6266 15.00743274208891
ONEWEB-0034             
1 45454U 20020AG  24016.90563028 -.00000477  00000+0 -13820-2 0  9997
2 45454  87.8966 196.4080 0001441  97.7351 262.3941 13.11416590186955
ONEWEB-0060             
1 45455U 20020AH  24016.91375390  .00002249  00000+0  63081-2 0  9993
2 45455  87.8966 196.4014 0001916 100.2578 259.8766 13.11405019186917
ONEWEB-0086             
1 45456U 20020AJ  24016.93161958  .00000326  00000+0  88397-3 0  9991
2 45456  87.8969 196.4055 0001543 110.2073 249.9221 13.11418602186977
ONEWEB-0088             
1 45457U 20020AK  24016.90887603 -.00000490  00000+0 -14171-2 0  9993
2 45457  87.8957 196.3812 0001389  99.2765 260.8520 13.11416621186903
ONEWEB-0102             
1 47258U 20100A   24016.91922237  .00000119  00000+0  29481-3 0  9994
2 47258  87.9019 166.2057 0001458  90.8049 269.3246 13.12437519149009
ONEWEB-0109             
1 47259U 20100B   24016.92718381  .00000363  00000+0  97300-3 0  9995
2 47259  87.9022 166.1671 0001537  94.0487 266.0817 13.12446175148831
ONEWEB-0110             
1 47260U 20100C   24016.87476789  .00000224  00000+0  58778-3 0  9996
2 47260  87.9016 166.1917 0001649  97.5054 262.6262 13.12441256148999
ONEWEB-0111             
1 47261U 20100D   24016.90812171 -.00000262  00000+0 -76274-3 0  9995
2 47261  87.9022 166.1741 0001543  96.8868 263.2436 13.12443818148839
ONEWEB-0114             
1 47262U 20100E   24016.86206675  .00000527  00000+0  14309-2 0  9999
2 47262  87.9017 166.2051 0001526  76.3222 283.8077 13.12442472148785
ONEWEB-0117             
1 47263U 20100F   24016.93036305  .00000446  00000+0  12042-2 0  9991
2 47263  87.9019 166.1602 0001449  98.1609 261.9684 13.12444216148806
ONEWEB-0118             
1 47264U 20100G   24016.88588375 -.00000103  00000+0 -32115-3 0  9991
2 47264  87.9021 166.1739 0001108  77.9247 282.2005 13.12443240148995
ONEWEB-0119             
1 47265U 20100H   24016.91446961 -.00000100  00000+0 -31457-3 0  9995
2 47265  87.9019 166.2066 0001617 101.1046 259.0264 13.12445077148976
ONEWEB-0120             
1 47266U 20100J   24016.86764046  .00000412  00000+0  11107-2 0  9990
2 47266  87.9022 166.2057 0001397  93.3908 266.7380 13.12442644148998
ONEWEB-0121             
1 47267U 20100K   24016.92559022  .00000289  00000+0  76922-3 0  9993
2 47267  87.9017 166.1901 0001582 103.4829 256.6476 13.12447173148919
ONEWEB-0122             
1 47268U 20100L   24016.92068282  .00000111  00000+0  27334-3 0  9994
2 47268  87.9018 166.1956 0001533  95.5482 264.5821 13.12446363148825
ONEWEB-0123             
1 47269U 20100M   24016.91605621  .00000030  00000+0  48414-4 0  9991
2 47269  87.9020 166.2049 0001450  92.9990 267.1304 13.12446231148960
ONEWEB-0124             
1 47270U 20100N   24016.90493397 -.00000304  00000+0 -87994-3 0  9998
2 47270  87.9020 166.2029 0001742 105.9606 254.1715 13.12441674148848
ONEWEB-0125             
1 47271U 20100P   24016.87952955  .00000067  00000+0  15216-3 0  9997
2 47271  87.9022 166.1651 0001122 110.5174 249.6075 13.12441966148904
ONEWEB-0126             
1 47272U 20100Q   24016.90733893 -.00000286  00000+0 -82982-3 0  9999
2 47272  87.9020 166.1725 0001530  92.4355 267.6949 13.12444043148973
ONEWEB-0127             
1 47273U 20100R   24016.86841816  .00000407  00000+0  10972-2 0  9992
2 47273  87.9025 166.2029 0001464  92.3107 267.8189 13.12442060148994
ONEWEB-0128             
1 47274U 20100S   24016.89064385 -.00000248  00000+0 -72399-3 0  9991
2 47274  87.9029 166.1927 0001810 100.1153 260.0180 13.12441787149014
ONEWEB-0129             
1 47275U 20100T   24016.87002049  .00000363  00000+0  97329-3 0  9995
2 47275  87.9023 166.1732 0002083  46.3767 313.7534 13.12441780148941
ONEWEB-0130             
1 47276U 20100U   24016.89858203 -.00000390  00000+0 -11208-2 0  9992
2 47276  87.9019 166.1785 0001636  94.7139 265.4176 13.12441480148917
ONEWEB-0131             
1 47277U 20100V   24016.89541021 -.00000439  00000+0 -12570-2 0  9997
2 47277  87.9024 166.1898 0001565 100.3478 259.7827 13.12442469148951
ONEWEB-0132             
1 47278U 20100W   24016.92400780 -.00000479  00000+0 -13667-2 0  9990
2 47278  87.9023 166.1851 0002120 111.6470 248.4884 13.12448712148859
ONEWEB-0133             
1 47279U 20100X   24016.86365082  .00000507  00000+0  13742-2 0  9993
2 47279  87.9017 166.2047 0001556 101.2210 258.9094 13.12442560149002
ONEWEB-0134             
1 47280U 20100Y   24016.90970705 -.00000226  00000+0 -66292-3 0  9993
2 47280  87.9015 166.1855 0001756  95.6871 264.4458 13.12444276148987
ONEWEB-0135             
1 47281U 20100Z   24016.87794365  .00000114  00000+0  28125-3 0  9993
2 47281  87.9022 166.1982 0001581  98.8209 261.3099 13.12441728149003
ONEWEB-0136             
1 47282U 20100AA  24016.90017651 -.00000392  00000+0 -11237-2 0  9999
2 47282  87.9022 166.1627 0001977  90.1092 270.0263 13.12443267148935
ONEWEB-0137             
1 47283U 20100AB  24016.93354172  .00000499  00000+0  13517-2 0  9994
2 47283  87.9016 166.1875 0001381  91.1689 268.9597 13.12442895148848
ONEWEB-0138             
1 47284U 20100AC  24016.91288893 -.00000113  00000+0 -35051-3 0  9992
2 47284  87.9015 166.2042 0001532  95.1982 264.9321 13.12443757148921
ONEWEB-0139             
1 47285U 20100AD  24016.88429160 -.00000070  00000+0 -23090-3 0  9995
2 47285  87.9021 166.1748 0001547  98.0349 262.0955 13.12441267148999
ONEWEB-0140             
1 47286U 20100AE  24016.90652653 -.00000390  00000+0 -11197-2 0  9993
2 47286  87.9017 166.1805 0001626  95.3398 264.7916 13.12444729148960
ONEWEB-0141             
1 47287U 20100AF  24016.92640091  .00000372  00000+0  99887-3 0  9990
2 47287  87.9018 166.1735 0001211 100.7828 259.3437 13.12445483148958
ONEWEB-0142             
1 47288U 20100AG  24016.92001877  .00000122  00000+0  30269-3 0  9996
2 47288  87.9019 166.1680 0001424  86.2832 273.8459 13.12442485148941
ONEWEB-0143             
1 47289U 20100AH  24016.87318290  .00000296  00000+0  78649-3 0  9997
2 47289  87.9020 166.1962 0001396 100.3242 259.8044 13.12442329148916
ONEWEB-0144             
1 47290U 20100AJ  24016.92242129  .00000205  00000+0  53393-3 0  9991
2 47290  87.9020 166.1708 0001569  83.4382 276.6925 13.12445102148843
ONEWEB-0145             
1 47291U 20100AK  24016.89381858 -.00000324  00000+0 -93612-3 0  9993
2 47291  87.9018 166.1996 0001480  93.2745 266.8553 13.12441939149038
ONEWEB-0146             
1 47292U 20100AL  24016.88905651 -.00000245  00000+0 -71565-3 0  9991
2 47292  87.9022 166.1825 0001532 120.0102 240.1179 13.12442050148942
ONEWEB-0147             
1 47293U 20100AM  24016.93195326  .00000464  00000+0  12545-2 0  9991
2 47293  87.9017 166.1740 0001790  93.1402 266.9931 13.12443733148842
ONEWEB-0115             
1 48042U 21025A   24016.88649361 -.00000247  00000+0 -71037-3 0  9991
2 48042  87.9007 135.8570 0001628 109.5627 250.5678 13.13470301137778
ONEWEB-0152             
1 48043U 21025B   24016.82301457 -.00000188  00000+0 -54914-3 0  9996
2 48043  87.9010 135.8612 0001670 105.4488 254.6826 13.13470561137720
ONEWEB-0153             
1 48044U 21025C   24016.87697518 -.00000039  00000+0 -14048-3 0  9997
2 48044  87.9015 135.8339 0001576 101.6651 258.4655 13.13471878137721
ONEWEB-0154             
1 48045U 21025D   24016.87379548  .00000035  00000+0  61369-4 0  9991
2 48045  87.9012 135.8509 0001614 103.9303 256.2006 13.13469006137681
ONEWEB-0116             
1 48046U 21025E   24016.83889274  .00000189  00000+0  48268-3 0  9992
2 48046  87.9013 135.8221 0001632 111.4165 248.7138 13.13471213137825
ONEWEB-0150             
1 48047U 21025F   24016.88967537 -.00000294  00000+0 -83893-3 0  9999
2 48047  87.9007 135.8397 0001454 101.5452 258.5840 13.13470862137721
ONEWEB-0107             
1 48048U 21025G   24016.81508337 -.00000307  00000+0 -87692-3 0  9998
2 48048  87.9008 135.8526 0001414  94.6553 265.4738 13.13469520137695
ONEWEB-0101             
1 48049U 21025H   24016.85475833  .00000359  00000+0  94927-3 0  9991
2 48049  87.9016 135.8522 0001659 100.1924 259.9392 13.13469433137672
